AMC-3                   
1 24936U 97050A   26065.49594309 -.00000264  00000+0  00000+0 0  9998
2 24936   7.8940  65.2484 0003464 292.1608 273.3413  1.00272683 51400
NSS-11                  
1 26554U 00059A   26065.61058494  .00000021  00000+0  00000+0 0  9993
2 26554   1.8615  82.6449 0003177 272.0481 205.4404  1.00272830 40264
AMC-6                   
1 26580U 00067A   26065.76876326  .00000085  00000+0  00000+0 0  9999
2 26580   0.0477 324.7732 0003090  23.8615 317.5368  1.00272973 92865
AMC-11                  
1 28252U 04017A   26065.55954899 -.00000054  00000+0  00000+0 0  9992
2 28252   0.0468  79.2059 0003231 274.9031 260.5015  1.00272792 79832
AMC-15                  
1 28446U 04041A   26065.56076233 -.00000093  00000+0  00000+0 0  9995
2 28446   0.0507 300.4027 0002552  30.0695 290.6175  1.00272387 78275
NSS-10                  
1 28526U 05003A   26065.78809001 -.00000254  00000+0  00000+0 0  9993
2 28526   6.1934  71.6906 0003238 269.4572  69.6207  1.00272071 52128
ASTRA 1KR               
1 29055U 06012A   26065.79927006  .00000115  00000+0  00000+0 0  9994
2 29055   0.2097  81.8773 0003372 254.1768 135.1728  1.00270596 44671
ASTRA 1L                
1 31306U 07016A   26065.79069002 -.00000187  00000+0  00000+0 0  9994
2 31306   1.0568  82.4023 0003402 281.2807  61.0069  1.00271091 43955
ASTRA 4A                
1 32299U 07057A   26065.79649671  .00000029  00000+0  00000+0 0  9991
2 32299   0.0485 297.1813 0002424  52.8086 106.0570  1.00271212 50613
ASTRA 1M                
1 33436U 08057A   26065.79935673  .00000116  00000+0  00000+0 0  9993
2 33436   0.0399  63.1324 0000886 357.0105  51.3227  1.00269896 44711
NSS-9                   
1 33749U 09008A   26065.76044322  .00000069  00000+0  00000+0 0  9993
2 33749   0.9966  83.6784 0002122 260.9724 276.6570  1.00274074 62490
SES-7 (PROTOSTAR 2)     
1 34941U 09027A   26065.81695014 -.00000348  00000+0  00000+0 0  9996
2 34941   0.0151  87.6539 0001361 224.8272 254.3964  1.00270602 61600
NSS-12                  
1 36032U 09058A   26065.34558611  .00000067  00000+0  00000+0 0  9999
2 36032   0.0029 267.1484 0004908  63.9853  14.3354  1.00273352 59887
SES-1                   
1 36516U 10016A   26065.56154234 -.00000119  00000+0  00000+0 0  9998
2 36516   0.0486 296.4887 0002482  43.5200 285.4236  1.00272573 58005
ASTRA 3B                
1 36581U 10021A   26065.80022338  .00000134  00000+0  00000+0 0  9998
2 36581   1.2036  84.8896 0003135 282.3124 108.8851  1.00272826 57847
SES-3                   
1 37748U 11035A   26065.56119566 -.00000106  00000+0  00000+0 0  9993
2 37748   1.0612  84.2789 0003583 269.6409 269.3801  1.00272354 53566
ASTRA 1N                
1 37775U 11041A   26065.79935673  .00000116  00000+0  00000+0 0  9990
2 37775   0.0709  25.3305 0004333 353.1319  93.0076  1.00269956 43508
