[{"OBJECT_NAME":"AMC-3","OBJECT_ID":"1997-050A","EPOCH":"2026-03-06T11:54:09.482976","MEAN_MOTION":1.00272683,"ECCENTRICITY":0.00034643,"INCLINATION":7.894,"RA_OF_ASC_NODE":65.2484,"ARG_OF_PERICENTER":292.1608,"MEAN_ANOMALY":273.3413,"EPHEMERIS_TYPE":0,"CLASSIFICATION_TYPE":"U","NORAD_CAT_ID":24936,"ELEMENT_SET_NO":999,"REV_AT_EPOCH":5140,"BSTAR":0,"MEAN_MOTION_DOT":-2.64e-6,"MEAN_MOTION_DDOT":0},{"OBJECT_NAME":"NSS-11","OBJECT_ID":"2000-059A","EPOCH":"2026-03-06T14:39:14.538816","MEAN_MOTION":1.0027283,"ECCENTRICITY":0.00031776,"INCLINATION":1.8615,"RA_OF_ASC_NODE":82.6449,"ARG_OF_PERICENTER":272.0481,"MEAN_ANOMALY":205.4404,"EPHEMERIS_TYPE":0,"CLASSIFICATION_TYPE":"U","NORAD_CAT_ID":26554,"ELEMENT_SET_NO":999,"REV_AT_EPOCH":4026,"BSTAR":0,"MEAN_MOTION_DOT":2.1e-7,"MEAN_MOTION_DDOT":0},{"OBJECT_NAME":"AMC-6","OBJECT_ID":"2000-067A","EPOCH":"2026-03-06T18:27:01.145664","MEAN_MOTION":1.00272973,"ECCENTRICITY":0.000309,"INCLINATION":0.0477,"RA_OF_ASC_NODE":324.7732,"ARG_OF_PERICENTER":23.8615,"MEAN_ANOMALY":317.5368,"EPHEMERIS_TYPE":0,"CLASSIFICATION_TYPE":"U","NORAD_CAT_ID":26580,"ELEMENT_SET_NO":999,"REV_AT_EPOCH":9286,"BSTAR":0,"MEAN_MOTION_DOT":8.5e-7,"MEAN_MOTION_DDOT":0},{"OBJECT_NAME":"AMC-11","OBJECT_ID":"2004-017A","EPOCH":"2026-03-06T13:25:45.032736","MEAN_MOTION":1.00272792,"ECCENTRICITY":0.00032319,"INCLINATION":0.0468,"RA_OF_ASC_NODE":79.2059,"ARG_OF_PERICENTER":274.9031,"MEAN_ANOMALY":260.5015,"EPHEMERIS_TYPE":0,"CLASSIFICATION_TYPE":"U","NORAD_CAT_ID":28252,"ELEMENT_SET_NO":999,"REV_AT_EPOCH":7983,"BSTAR":0,"MEAN_MOTION_DOT":-5.4e-7,"MEAN_MOTION_DDOT":0},{"OBJECT_NAME":"AMC-15","OBJECT_ID":"2004-041A","EPOCH":"2026-03-06T13:27:29.865312","MEAN_MOTION":1.00272387,"ECCENTRICITY":0.00025521,"INCLINATION":0.0507,"RA_OF_ASC_NODE":300.4027,"ARG_OF_PERICENTER":30.0695,"MEAN_ANOMALY":290.6175,"EPHEMERIS_TYPE":0,"CLASSIFICATION_TYPE":"U","NORAD_CAT_ID":28446,"ELEMENT_SET_NO":999,"REV_AT_EPOCH":7827,"BSTAR":0,"MEAN_MOTION_DOT":-9.3e-7,"MEAN_MOTION_DDOT":0},{"OBJECT_NAME":"NSS-10","OBJECT_ID":"2005-003A","EPOCH":"2026-03-06T18:54:50.976864","MEAN_MOTION":1.00272071,"ECCENTRICITY":0.0003238,"INCLINATION":6.1934,"RA_OF_ASC_NODE":71.6906,"ARG_OF_PERICENTER":269.4572,"MEAN_ANOMALY":69.6207,"EPHEMERIS_TYPE":0,"CLASSIFICATION_TYPE":"U","NORAD_CAT_ID":28526,"ELEMENT_SET_NO":999,"REV_AT_EPOCH":5212,"BSTAR":0,"MEAN_MOTION_DOT":-2.54e-6,"MEAN_MOTION_DDOT":0},{"OBJECT_NAME":"ASTRA 1KR","OBJECT_ID":"2006-012A","EPOCH":"2026-03-06T19:10:56.933184","MEAN_MOTION":1.00270596,"ECCENTRICITY":0.0003372,"INCLINATION":0.2097,"RA_OF_ASC_NODE":81.8773,"ARG_OF_PERICENTER":254.1768,"MEAN_ANOMALY":135.1728,"EPHEMERIS_TYPE":0,"CLASSIFICATION_TYPE":"U","NORAD_CAT_ID":29055,"ELEMENT_SET_NO":999,"REV_AT_EPOCH":4467,"BSTAR":0,"MEAN_MOTION_DOT":1.15e-6,"MEAN_MOTION_DDOT":0},{"OBJECT_NAME":"ASTRA 1L","OBJECT_ID":"2007-016A","EPOCH":"2026-03-06T18:58:35.617728","MEAN_MOTION":1.00271091,"ECCENTRICITY":0.0003402,"INCLINATION":1.0568,"RA_OF_ASC_NODE":82.4023,"ARG_OF_PERICENTER":281.2807,"MEAN_ANOMALY":61.0069,"EPHEMERIS_TYPE":0,"CLASSIFICATION_TYPE":"U","NORAD_CAT_ID":31306,"ELEMENT_SET_NO":999,"REV_AT_EPOCH":4395,"BSTAR":0,"MEAN_MOTION_DOT":-1.87e-6,"MEAN_MOTION_DDOT":0},{"OBJECT_NAME":"ASTRA 4A","OBJECT_ID":"2007-057A","EPOCH":"2026-03-06T19:06:57.315744","MEAN_MOTION":1.00271212,"ECCENTRICITY":0.0002424,"INCLINATION":0.0485,"RA_OF_ASC_NODE":297.1813,"ARG_OF_PERICENTER":52.8086,"MEAN_ANOMALY":106.057,"EPHEMERIS_TYPE":0,"CLASSIFICATION_TYPE":"U","NORAD_CAT_ID":32299,"ELEMENT_SET_NO":999,"REV_AT_EPOCH":5061,"BSTAR":0,"MEAN_MOTION_DOT":2.9e-7,"MEAN_MOTION_DDOT":0},{"OBJECT_NAME":"ASTRA 1M","OBJECT_ID":"2008-057A","EPOCH":"2026-03-06T19:11:04.421472","MEAN_MOTION":1.00269896,"ECCENTRICITY":8.86e-5,"INCLINATION":0.0399,"RA_OF_ASC_NODE":63.1324,"ARG_OF_PERICENTER":357.0105,"MEAN_ANOMALY":51.3227,"EPHEMERIS_TYPE":0,"CLASSIFICATION_TYPE":"U","NORAD_CAT_ID":33436,"ELEMENT_SET_NO":999,"REV_AT_EPOCH":4471,"BSTAR":0,"MEAN_MOTION_DOT":1.16e-6,"MEAN_MOTION_DDOT":0},{"OBJECT_NAME":"NSS-9","OBJECT_ID":"2009-008A","EPOCH":"2026-03-06T18:15:02.294208","MEAN_MOTION":1.00274074,"ECCENTRICITY":0.0002122,"INCLINATION":0.9966,"RA_OF_ASC_NODE":83.6784,"ARG_OF_PERICENTER":260.9724,"MEAN_ANOMALY":276.657,"EPHEMERIS_TYPE":0,"CLASSIFICATION_TYPE":"U","NORAD_CAT_ID":33749,"ELEMENT_SET_NO":999,"REV_AT_EPOCH":6249,"BSTAR":0,"MEAN_MOTION_DOT":6.9e-7,"MEAN_MOTION_DDOT":0},{"OBJECT_NAME":"SES-7 (PROTOSTAR 2)","OBJECT_ID":"2009-027A","EPOCH":"2026-03-06T19:36:24.492096","MEAN_MOTION":1.00270602,"ECCENTRICITY":0.0001361,"INCLINATION":0.0151,"RA_OF_ASC_NODE":87.6539,"ARG_OF_PERICENTER":224.8272,"MEAN_ANOMALY":254.3964,"EPHEMERIS_TYPE":0,"CLASSIFICATION_TYPE":"U","NORAD_CAT_ID":34941,"ELEMENT_SET_NO":999,"REV_AT_EPOCH":6160,"BSTAR":0,"MEAN_MOTION_DOT":-3.48e-6,"MEAN_MOTION_DDOT":0},{"OBJECT_NAME":"NSS-12","OBJECT_ID":"2009-058A","EPOCH":"2026-03-06T08:17:38.639904","MEAN_MOTION":1.00273352,"ECCENTRICITY":0.0004908,"INCLINATION":0.0029,"RA_OF_ASC_NODE":267.1484,"ARG_OF_PERICENTER":63.9853,"MEAN_ANOMALY":14.3354,"EPHEMERIS_TYPE":0,"CLASSIFICATION_TYPE":"U","NORAD_CAT_ID":36032,"ELEMENT_SET_NO":999,"REV_AT_EPOCH":5988,"BSTAR":0,"MEAN_MOTION_DOT":6.7e-7,"MEAN_MOTION_DDOT":0},{"OBJECT_NAME":"SES-1","OBJECT_ID":"2010-016A","EPOCH":"2026-03-06T13:28:37.258176","MEAN_MOTION":1.00272573,"ECCENTRICITY":0.00024825,"INCLINATION":0.0486,"RA_OF_ASC_NODE":296.4887,"ARG_OF_PERICENTER":43.52,"MEAN_ANOMALY":285.4236,"EPHEMERIS_TYPE":0,"CLASSIFICATION_TYPE":"U","NORAD_CAT_ID":36516,"ELEMENT_SET_NO":999,"REV_AT_EPOCH":5800,"BSTAR":0,"MEAN_MOTION_DOT":-1.19e-6,"MEAN_MOTION_DDOT":0},{"OBJECT_NAME":"ASTRA 3B","OBJECT_ID":"2010-021A","EPOCH":"2026-03-06T19:12:19.300032","MEAN_MOTION":1.00272826,"ECCENTRICITY":0.0003135,"INCLINATION":1.2036,"RA_OF_ASC_NODE":84.8896,"ARG_OF_PERICENTER":282.3124,"MEAN_ANOMALY":108.8851,"EPHEMERIS_TYPE":0,"CLASSIFICATION_TYPE":"U","NORAD_CAT_ID":36581,"ELEMENT_SET_NO":999,"REV_AT_EPOCH":5784,"BSTAR":0,"MEAN_MOTION_DOT":1.34e-6,"MEAN_MOTION_DDOT":0},{"OBJECT_NAME":"SES-3","OBJECT_ID":"2011-035A","EPOCH":"2026-03-06T13:28:07.305024","MEAN_MOTION":1.00272354,"ECCENTRICITY":0.00035833,"INCLINATION":1.0612,"RA_OF_ASC_NODE":84.2789,"ARG_OF_PERICENTER":269.6409,"MEAN_ANOMALY":269.3801,"EPHEMERIS_TYPE":0,"CLASSIFICATION_TYPE":"U","NORAD_CAT_ID":37748,"ELEMENT_SET_NO":999,"REV_AT_EPOCH":5356,"BSTAR":0,"MEAN_MOTION_DOT":-1.06e-6,"MEAN_MOTION_DDOT":0},{"OBJECT_NAME":"ASTRA 1N","OBJECT_ID":"2011-041A","EPOCH":"2026-03-06T19:11:04.421472","MEAN_MOTION":1.00269956,"ECCENTRICITY":0.0004333,"INCLINATION":0.0709,"RA_OF_ASC_NODE":25.3305,"ARG_OF_PERICENTER":353.1319,"MEAN_ANOMALY":93.0076,"EPHEMERIS_TYPE":0,"CLASSIFICATION_TYPE":"U","NORAD_CAT_ID":37775,"ELEMENT_SET_NO":999,"REV_AT_EPOCH":4350,"BSTAR":0,"MEAN_MOTION_DOT":1.16e-6,"MEAN_MOTION_DDOT":0}]
